full_name,epoch_mjd,a,e,i,om,w,ma,per_y
"       (2013 FC28)",57400,46.27809083316109,.08298802908532434,16.26238820857563,193.2048107426056,92.82746901360446,257.6663585661747,314.826552387909
"       (2013 FD28)",57400,39.90125707958535,.1852817598000301,6.844136660160794,251.2154968541081,203.0660847039333,90.04792263223075,252.050793860826
"       (2013 FG28)",57400,57.60221699880258,.4005304240355474,21.01302129880582,329.3672106193918,249.4360047754478,343.6667287029896,437.186759551699
"       (2013 FH28)",57400,43.56001542073439,.1418036854839994,13.05892783025346,322.7737219277117,292.7847927297251,297.3277420721951,287.501582486719
"       (2013 FJ28)",57400,35.36740199864938,.4457186335014761,21.80131698467555,184.9431458934145,77.8391009384173,321.3770376852538,210.335675437878
"       (2013 FO28)",56403,41.50428176457194,.1975189620261078,9.358943250648661,244.6129056700013,45.32869007422203,290.8069229653051,267.391474672131
"       (2013 GO136)",57400,38.96482462230431,.06545914008630498,24.23609703723261,39.12983125875078,149.3505586394614,30.44568164936329,243.23008470133
"       (2013 GP136)",57400,152.4968298951023,.730354661525237,33.48578243351589,210.7141864214992,42.12837014695625,356.0611660336577,1883.21292311124
"       (2013 GQ136)",57400,48.92897547685228,.1679086782213686,2.026045395146893,203.3335121354637,156.6024139371209,232.7428746361247,342.260976832456
"       (2013 GR136)",57400,43.90064692846338,.08025182712376858,1.641698057789734,198.6942344522189,52.68560359378773,330.3446078894223,290.880482860248
"       (2013 GS136)",57400,56.11785927345777,.3901356155159869,6.968051482324182,44.57640712798869,196.6816317565047,350.0517655144762,420.397229946503
"       (2013 GT136)",57400,42.55873610211663,.1490340671255234,12.08665246945995,40.8681349362596,356.8698019908495,176.2998657471464,277.645913115841
"       (2013 GU136)",57400,44.44449112817275,.1743837211944647,8.306704683300133,49.18448353190286,125.96842371604,30.12044831997899,296.302359168643
"       (2013 GV136)",57400,41.31590478380848,.03828183630337631,7.438685534086382,216.0348750607367,295.3449103338754,65.22250777292571,265.573112852101
"       (2013 GW136)",57400,48.0856556906955,.3479119948122008,6.65126324544577,219.3071539267465,34.97440901870527,345.9997355808916,333.450609731263
"       (2013 GX136)",57400,48.35260783560162,.2562556313238001,1.098416625879454,63.56280104043216,180.3423951292754,345.2190762211422,336.231234778221
"       (2013 GY136)",57400,55.97227911007907,.4177204984956709,10.8622574469841,221.0122320690394,43.4241825212757,344.2253937731604,418.76240845607
"       (2013 GZ136)",57400,87.87865846960301,.6138526523044637,18.33614795389681,213.9175384224523,36.14115876504474,353.694515018146,823.82189466033
"       (2013 GA137)",56400,42.51471889999999,0.1681712,2.70556,89.29046,3.60655,102.82894,277.21528346682
"       (2013 GC137)",57400,43.45541330536249,.02785145286820733,2.304679904669427,40.70496905383352,66.9651886688079,108.9166687922042,286.466623745654
"       (2013 GD137)",57400,39.61204960546356,.1093098393249732,6.929525374228936,204.4093038521276,352.2355246482707,16.58358324539299,249.315439201583
"       (2013 GE137)",57400,39.61887268572664,.2615190214827348,3.859508890654554,31.37467885498299,137.4240070048968,30.40427959848607,249.379857952439
"       (2013 GF137)",57400,39.79155378499245,.1599079804212316,14.65227518443851,35.78239688458792,103.4609978974274,61.99758375532102,251.012037557328
"       (2013 GG137)",57400,39.59144303975813,.1412452740891859,2.391571016809796,96.07128259555726,74.69236525496824,36.63842435681829,249.120920103587
"       (2013 GH137)",57400,39.70907163390667,.233260659633542,13.44714967338164,35.73057299914745,152.8834352759985,20.4369725371528,250.231974528107
"       (2013 GJ137)",57400,39.68043614744499,.2673379728291136,16.84979716768475,42.49107132742924,229.7337164148921,330.103822636783,249.961347865929
"       (2013 GK137)",57400,39.32835251287763,.174361211874324,9.858882585458293,44.996749146428,12.79609002940899,156.7490329688312,246.641886299543
"       (2013 GL137)",57400,39.4587711490329,.2013018694481969,10.42441578435614,44.49258167612261,233.8198882307333,322.8420504799045,247.86975432739
"       (2013 GM137)",57400,44.35543704571997,.07952515393405588,22.41584373454197,32.45717139071522,105.9646098800325,69.51097189942908,295.41224731232
"       (2013 GN137)",57400,44.36490199798349,.0707112606979037,2.759711717982875,72.41782115107813,104.5331993553968,33.53877377045242,295.506808841703
"       (2013 GO137)",57400,41.61006009606142,.08865339924958292,29.19428369914045,35.39891004789668,288.305201156396,261.3397501877419,268.414341587647
"       (2013 GP137)",57400,43.94248340485503,.02119245065128761,1.746879359638691,141.4464816898207,190.4465735785476,247.2474486967118,291.296387208477
"       (2013 GQ137)",57400,45.98100646743089,.1360132769589113,2.847568516850242,90.46744684834569,71.18163349828733,44.23441333227991,311.799857287638
"       (2013 GR137)",57400,42.85265872128146,.04425399237428169,4.220007989002298,51.37487565076898,226.0853493101566,305.8467471499014,280.527124786856
"       (2013 GS137)",57400,44.13176770854195,.1051866079253548,2.594995034304991,95.86255603044377,120.8660321319702,2.124958812277581,293.180571857907
"       (2013 GT137)",57400,44.85828499121698,.1092603598119018,2.288792399598265,25.23711550546166,111.214944578068,71.37009344769565,300.449994833624
"       (2013 GU137)",57400,45.09268180992633,.07849973636991285,4.962697703147679,35.72717285775089,209.3841917747943,338.911091688505,302.807968612888
"       (2013 GV137)",57400,44.00412015315045,.0783743513329323,3.194619210016816,69.80905601617107,288.6389630082468,226.5103514495223,291.909490587396
"       (2013 GW137)",57400,43.10674646478561,.06695230270485207,5.008083328420969,46.32179998791304,186.7230245098233,346.2953855298807,283.025828272167
"       (2013 GX137)",57400,43.52450824964269,.05914278561345009,4.121989350187751,51.1400451046046,235.712662460994,296.6170505606004,287.150126436777
"       (2013 GY137)",57400,45.14963690928406,.1045622470284844,5.299432636569398,39.93240917529747,211.06405065454,332.3659193211167,303.381850070821
"       (2013 GZ137)",57400,41.65409884009901,.05094827997842397,21.07604258140012,212.1116569074134,293.2298282467908,69.96876251633417,268.840575924361
"       (2013 GA138)",57400,44.03757498411387,.04941671329699517,3.896481441234971,63.43220923254938,181.7182567594139,337.8219018173386,292.24244708816
"       (2013 GB138)",57400,43.18254085725735,.04484174557004749,2.781043306519177,182.4616019299359,187.3145853541739,213.4287806343548,283.772620805011
"       (2013 GC138)",57400,43.10536503037157,.04717356102976659,3.021552996902793,83.35239492377826,250.0361144674429,252.23274685567,283.012223261854
"       (2013 GD138)",57400,44.19844855683415,.1191624630382513,5.414105170739507,57.02867664368929,146.3027528982833,14.26753272346326,293.845294108216
"       (2013 GE138)",57400,44.39024141809669,.05160274692844592,3.062288208105155,31.53216438661988,62.37246367251085,123.0544627641287,295.760017119272
"       (2013 GF138)",57400,44.27582832558063,.02051144640763442,.551244657431371,175.7623040365019,320.7611833591313,82.94457767143746,294.617299596847
"       (2013 GG138)",57400,47.68595446908811,.02382803902062336,24.55767011697871,215.1819243766506,134.6861715791062,233.5694610232607,329.301661476178
"       (2013 HR156)",57400,46.02889134756958,.1943084877021937,20.3767085454517,214.1544189610154,330.7193630781456,24.99251468208934,312.287049275468
"       (2013 HS156)",57400,45.93120229824966,.1798039284702518,8.246401433661759,41.52915969101293,207.6163832035631,341.3305072757078,311.293407073231
"       (2013 HT156)",57400,44.254879368766,.01028955532564913,3.671880113246472,54.51868206981238,310.4310375239981,216.2469320853655,294.408228579807
"       (2013 JU63)",57400,49.67354249118758,.2968841530970471,4.296130020116869,278.4547831718967,269.6545650485768,23.27695974561946,350.103056079045
"       (2013 JV63)",57400,46.92392085707292,.2277626326188503,8.211105141082967,350.4135628739797,160.0789333868065,65.71478927677344,321.43979520332
"       (2013 JW63)",57400,46.80147765016713,.1848975341146196,7.751055389101915,309.2337136861034,17.52376514693943,296.9703397147353,320.182469551426
"       (2013 JD64)",57400,72.72189357872047,.4140751357784752,50.28987524481536,67.53327658684265,177.4952887103251,358.4027733041968,620.163169279832
"       (2013 JE64)",57400,48.06672666239437,.2893122120710684,8.339404424357843,107.0582453547709,89.42451554051959,24.97913609401618,333.253733717279
"       (2013 JF64)",57400,55.85880373944301,.4540767213114588,8.788546235641242,105.2574501359214,128.1326742781582,3.459866087895255,417.48958749176
"       (2013 JG64)",57400,41.83823323269462,.1048935736611052,18.1726427445557,207.8744293486022,184.6709004452703,214.4083829878274,270.625182894564
"       (2013 JH64)",57400,59.63375780920552,.3877714336463632,13.73057960755586,86.00640347564797,60.6883416759524,49.02522449058924,460.517849598697
"       (2013 JJ64)",57400,47.93400653387933,.08136116548693602,7.655163173402872,128.0289355181635,181.7559907821899,299.3867149750953,331.874434475661
"       (2013 JK64)",57400,55.66146040876355,.41293476328767,11.08134701892787,100.2471452314398,121.7759792552916,8.429299793287445,415.279121918991
"       (2013 JL64)",57400,57.17994098942113,.3714672503146644,27.6586509999149,73.37994047944561,104.3318355690804,30.25093616765536,432.388123416626
"       (2013 JM64)",57400,42.5031248690433,.05195871894242421,7.283843005748064,165.225133209639,46.73270746229829,30.97360012476759,277.10189367398
"       (2013 JN64)",57400,53.34072574255963,.2918463629793371,7.742661979533016,146.3125188812135,78.86447762042771,11.3833203565903,389.579936736771
